SAR-LUPE 2              
1 31797U 07030A   26204.24550417  .00044161  00000+0  65491-3 0  9992
2 31797  98.1057 313.2993 0005793 223.8851 136.1942 15.55098238 62530
SAPPHIRE                
1 39088U 13009C   26204.27410212  .00000098  00000+0  49081-4 0  9996
2 39088  98.4281  22.8764 0012027 137.2209 222.9915 14.35249233701753
PRAETORIAN SDA_602      
1 65565U 25203A   26204.31590612  .00000086  00000+0  66362-4 0  9990
2 65565  81.3052 337.3201 0007148  99.1830 261.0136 13.83888949 43699
PRAETORIAN SDA_603      
1 65566U 25203B   26203.33162045  .00000088  00000+0  68112-4 0  9994
2 65566  81.3057 338.1523 0010806  97.4826 262.7559 13.83962192 43568
PRAETORIAN SDA_604      
1 65567U 25203C   26202.79513893  .00000110  00000+0  89897-4 0  9994
2 65567  81.3074 339.1150 0006671 106.6224 253.5665 13.83051108 43466
PRAETORIAN SDA_605      
1 65568U 25203D   26203.33279559  .00000113  00000+0  91747-4 0  9994
2 65568  81.3039 338.2547 0009374  96.3009 263.9215 13.83201247 43554
PRAETORIAN SDA_606      
1 65569U 25203E   26203.31797137  .00000065  00000+0  48379-4 0  9999
2 65569  81.3075 338.5093 0007227  99.9263 260.2710 13.83200571 43548
PRAETORIAN SDA_607      
1 65570U 25203F   26204.31774528  .00000134  00000+0  11013-3 0  9992
2 65570  81.3062 337.1972 0010055  95.1072 265.1232 13.83759288 43701
PRAETORIAN SDA_608      
1 65571U 25203G   26204.29991065  .00000108  00000+0  86732-4 0  9999
2 65571  81.3028 337.3738 0007154 101.6661 258.5299 13.83820686 43686
PRAETORIAN SDA_609      
1 65572U 25203H   26203.78861788  .00000154  00000+0  12710-3 0  9996
2 65572  81.3070 337.8237 0008024  97.5432 262.6636 13.84212453 43622
PRAETORIAN SDA_610      
1 65573U 25203J   26203.34337495  .00000107  00000+0  86424-4 0  9994
2 65573  81.3030 338.2255 0007887 103.1751 257.0285 13.83529321 43552
PRAETORIAN SDA_611      
1 65574U 25203K   26203.78738825  .00000016  00000+0  37926-5 0  9998
2 65574  81.3030 338.0000 0006811 106.5971 253.5934 13.83311293 43601
PRAETORIAN SDA_612      
1 65575U 25203L   26204.31049063  .00000128  00000+0  10282-3 0  9996
2 65575  81.3052 337.0139 0010398  95.2142 265.0202 13.85042459 43712
PRAETORIAN SDA_613      
1 65576U 25203M   26204.31462277  .00000090  00000+0  71789-4 0  9991
2 65576  81.3021 337.5373 0006830  96.7254 263.4680 13.82768742 43674
PRAETORIAN SDA_614      
1 65577U 25203N   26203.65621734  .00000063  00000+0  45558-4 0  9998
2 65577  81.3036 337.7070 0008271  95.8403 264.3697 13.84779208 43628
PRAETORIAN SDA_615      
1 65578U 25203P   26203.78637035  .00000096  00000+0  75229-4 0  9998
2 65578  81.3044 337.5726 0010206  95.4925 264.7396 13.84439058 43637
PRAETORIAN SDA_616      
1 65579U 25203Q   26203.78766026  .00000134  00000+0  11150-3 0  9997
2 65579  81.3085 338.1684 0006681 104.9606 255.2290 13.83270763 43607
PRAETORIAN SDA_617      
1 65580U 25203R   26203.66762432  .00000059  00000+0  42570-4 0  9990
2 65580  81.3059 338.1074 0008541  96.0943 264.1187 13.83152799 43595
PRAETORIAN SDA_618      
1 65581U 25203S   26203.61031870  .00000176  00000+0  14741-3 0  9999
2 65581  81.3044 337.6702 0010926  98.8356 261.4038 13.84226576 43614
PRAETORIAN SDA_619      
1 65582U 25203T   26204.31070914  .00000111  00000+0  89656-4 0  9997
2 65582  81.3066 337.3573 0009345  95.0978 265.1245 13.83806921 44321
PRAETORIAN SDA_620      
1 65583U 25203U   26203.77063501  .00000060  00000+0  43720-4 0  9996
2 65583  81.3052 337.8945 0008669  94.0685 266.1462 13.83208277 43610
PRAETORIAN SDA_621      
1 65584U 25203V   26204.31255679  .00000088  00000+0  68699-4 0  9999
2 65584  81.3042 337.2856 0008508  89.9210 270.2921 13.83804891 43692
PRAETORIAN SDA_601      
1 65585U 25203W   26203.79336749  .00000007  00000+0 -45613-5 0  9993
2 65585  81.3059 338.1033 0006762 107.6415 252.5480 13.83171200 43608
VICTUS HAZE PUMA        
1 69646U 26142A   26204.27102410  .00004214  00000+0  19059-3 0  9994
2 69646  97.4452 101.4820 0026594 237.1743 122.6931 15.21162456  5151
